OBJECT_NAME,OBJECT_ID,EPOCH,MEAN_MOTION,ECCENTRICITY,INCLINATION,RA_OF_ASC_NODE,ARG_OF_PERICENTER,MEAN_ANOMALY,EPHEMERIS_TYPE,CLASSIFICATION_TYPE,NORAD_CAT_ID,ELEMENT_SET_NO,REV_AT_EPOCH,BSTAR,MEAN_MOTION_DOT,MEAN_MOTION_DDOT
GAOFEN-11 01,2018-063A,2026-07-16T15:11:16.422144,15.56102196,.00032505,97.1271,264.4432,193.0469,167.0703,0,U,43585,999,44492,.18867842E-3,.13078E-3,0
ICESAT-2,2018-070A,2026-07-16T13:19:41.992896,15.28191686,.00055313,92.0095,298.9155,55.9777,304.1996,0,U,43613,999,43694,.19759881E-3,.543E-4,0
HYSIS,2018-096A,2026-07-16T15:33:16.399872,14.78672312,.00018121,97.9830,264.1631,82.5488,277.5928,0,U,43719,999,41177,.77310956E-4,.515E-5,0
KAZSTSAT,2018-099AB,2026-07-16T01:12:51.169536,14.99956264,.0007322,97.4317,227.6783,337.5710,22.5193,0,U,43783,999,41563,.33573966E-4,.361E-5,0
SAUDISAT 5A,2018-102A,2026-07-16T15:07:36.673248,15.28329448,.00103103,97.3050,258.6464,39.2910,320.9076,0,U,43831,999,42017,.10555075E-3,.2842E-4,0
SAUDISAT 5B,2018-102C,2026-07-16T15:27:49.866624,15.28572044,.0011094,97.3160,261.7833,40.5666,319.6399,0,U,43833,999,42029,.96875624E-4,.2623E-4,0
GAOFEN-10R,2019-066A,2026-07-16T15:18:58.309632,14.83058743,.00068071,98.0510,151.4340,49.1373,311.0430,0,U,44622,999,36674,.6876192E-4,.505E-5,0
CARTOSAT-3,2019-081A,2026-07-16T14:21:31.908672,15.19189248,.00129455,97.4291,258.9895,54.5110,305.7331,0,U,44804,999,36793,.75589239E-4,.1525E-4,0
GAOFEN-12 01,2019-082A,2026-07-16T14:46:10.604928,14.80480107,.00008956,97.8110,203.2193,56.4455,303.6843,0,U,44819,999,35844,.26280421E-4,.15E-5,0
CSG-1,2019-092A,2026-07-16T14:54:12.646944,14.82157639,.0001455,97.8897,20.7985,91.7963,268.3417,0,U,44873,999,35583,.33888784E-4,.218E-5,0
NEMO-HD,2020-061F,2026-07-16T14:25:32.633760,15.45156699,.00009962,97.1900,259.2657,101.6119,258.5242,0,U,46277,999,32652,.13528683E-3,.6324E-4,0
SENTINEL-6A,2020-086A,2026-07-16T01:14:22.979904,12.80930199,.00077859,66.0412,75.1016,269.7329,90.2794,0,U,46984,999,26402,.10728445E-3,-.36E-6,0
CAS500-1,2021-022A,2026-07-16T14:50:21.779232,15.20140087,.00053202,97.3863,92.2705,166.1772,193.9610,0,U,47932,999,29523,.14279489E-3,.3021E-4,0
GAOFEN-12 02,2021-026A,2026-07-16T15:06:39.987936,14.80316653,.00059188,97.9935,195.6919,128.3842,231.7903,0,U,48079,999,28611,.24413471E-4,.133E-5,0
PLEIADES NEO 3,2021-034A,2026-07-16T15:06:52.223040,14.81670062,.0001351,97.8943,271.9729,94.3874,265.7493,0,U,48268,999,28201,.96309962E-4,.706E-5,0
PLEIADES NEO 4,2021-073E,2026-07-16T14:18:13.992192,14.81674796,.00013484,97.8942,271.9356,92.1221,268.0146,0,U,49070,999,26572,.81115069E-4,.586E-5,0
LANDSAT 9,2021-088A,2026-07-16T10:47:52.999008,14.57095995,.00011231,98.2270,267.2712,89.1381,270.9946,0,U,49260,999,25526,.44905205E-4,.157E-5,0
CSG-2,2022-008A,2026-07-16T14:05:34.404864,14.82148994,.00014975,97.8886,20.7587,86.7951,273.3433,0,U,51444,999,24094,-.15143025E-4,-.173E-5,0
GAOFEN-12 03,2022-069A,2026-07-16T15:56:59.236800,14.80078227,.00024204,97.8244,84.7870,71.4372,288.7103,0,U,52912,999,21897,.88721441E-4,.622E-5,0
SWOT,2022-173A,2026-07-16T13:41:13.604640,14.00172451,.00002376,77.6111,355.6415,72.7747,287.3431,0,U,54754,999,18326,-.11323159E-4,-.19E-6,0
GAOFEN-12 04,2023-123A,2026-07-16T14:48:24.640704,14.79776708,.00034455,97.9100,115.1946,47.5039,312.6463,0,U,57654,999,15698,.65416802E-4,.441E-5,0
PARS 1,2024-039Q,2026-07-16T15:13:36.518880,15.46308464,.00096024,97.4842,179.4978,22.2905,337.8759,0,U,59065,999,13319,.12958778E-3,.6303E-4,0
RESURS-P 4,2024-061A,2026-07-16T15:38:08.596896,15.32284961,.00032348,97.2760,145.0419,87.2742,272.8871,0,U,59371,999,12827,.53454356E-4,.1591E-4,0
LEGION 1,2024-081A,2026-07-16T14:01:33.622752,15.16849035,.00077313,97.5011,275.1297,263.8823,96.1529,0,U,59625,999,12199,.97237074E-4,.1846E-4,0
LEGION 2,2024-081B,2026-07-16T13:10:20.985600,15.16827887,.00103079,97.5012,275.1912,228.3235,131.7117,0,U,59626,999,12199,.9813364E-4,.1864E-4,0
ALOS-4 (DAICHI-4),2024-123A,2026-07-16T13:53:29.918400,14.79472233,.00015345,97.9221,294.3329,96.1078,264.0309,0,U,60182,999,11022,.11110845E-3,.778E-5,0
LEGION 3,2024-146A,2026-07-16T14:07:54.480000,15.15659955,.00080805,45.0017,232.9186,341.6257,18.4328,0,U,60452,999,10648,.80998008E-4,.1303E-4,0
LEGION 4,2024-146B,2026-07-16T14:07:30.252576,15.15686972,.00090053,45.0029,324.7876,122.4333,237.7418,0,U,60453,999,10533,.96355645E-4,.1602E-4,0
SENTINEL-2C,2024-157A,2026-07-16T14:42:53.561952,14.30815932,.00009933,98.5684,271.9774,103.7400,256.3894,0,U,60989,999,9719,.3572176E-4,.5E-6,0
IONOSFERA-M 1,2024-199A,2026-07-16T14:09:33.878016,14.22759314,.00021399,98.7132,70.4465,70.9975,289.1435,0,U,61735,999,13188,.28666715E-4,.2E-6,0
