GAOFEN-11 01            
1 43585U 18063A   26197.63282896  .00013078  00000+0  18868-3 0  9994
2 43585  97.1271 264.4432 0003250 193.0469 167.0703 15.56102196444924
ICESAT-2                
1 43613U 18070A   26197.55534714  .00005430  00000+0  19760-3 0  9999
2 43613  92.0095 298.9155 0005531  55.9777 304.1996 15.28191686436942
HYSIS                   
1 43719U 18096A   26197.64810648  .00000515  00000+0  77311-4 0  9993
2 43719  97.9830 264.1631 0001812  82.5488 277.5928 14.78672312411773
KAZSTSAT                
1 43783U 18099AB  26197.05059224  .00000361  00000+0  33574-4 0  9999
2 43783  97.4317 227.6783 0007322 337.5710  22.5193 14.99956264415639
SAUDISAT 5A             
1 43831U 18102A   26197.63028557  .00002842  00000+0  10555-3 0  9996
2 43831  97.3050 258.6464 0010310  39.2910 320.9076 15.28329448420176
SAUDISAT 5B             
1 43833U 18102C   26197.64432716  .00002623  00000+0  96876-4 0  9993
2 43833  97.3160 261.7833 0011094  40.5666 319.6399 15.28572044420296
GAOFEN-10R              
1 44622U 19066A   26197.63817488  .00000505  00000+0  68762-4 0  9992
2 44622  98.0510 151.4340 0006807  49.1373 311.0430 14.83058743366740
CARTOSAT-3              
1 44804U 19081A   26197.59828598  .00001525  00000+0  75589-4 0  9998
2 44804  97.4291 258.9895 0012945  54.5110 305.7331 15.19189248367935
GAOFEN-12 01            
1 44819U 19082A   26197.61540052  .00000150  00000+0  26280-4 0  9991
2 44819  97.8110 203.2193 0000895  56.4455 303.6843 14.80480107358449
CSG-1                   
1 44873U 19092A   26197.62097971  .00000218  00000+0  33889-4 0  9998
2 44873  97.8897  20.7985 0001455  91.7963 268.3417 14.82157639355838
NEMO-HD                 
1 46277U 20061F   26197.60107215  .00006324  00000+0  13529-3 0  9999
2 46277  97.1900 259.2657 0000996 101.6119 258.5242 15.45156699326520
SENTINEL-6A             
1 46984U 20086A   26197.05165486 -.00000036  00000+0  10728-3 0  9997
2 46984  66.0412  75.1016 0007785 269.7329  90.2794 12.80930199264024
CAS500-1                
1 47932U 21022A   26197.61830763  .00003021  00000+0  14279-3 0  9992
2 47932  97.3863  92.2705 0005320 166.1772 193.9610 15.20140087295236
GAOFEN-12 02            
1 48079U 21026A   26197.62962949  .00000133  00000+0  24413-4 0  9995
2 48079  97.9935 195.6919 0005918 128.3842 231.7903 14.80316653286113
PLEIADES NEO 3          
1 48268U 21034A   26197.62977110  .00000706  00000+0  96310-4 0  9991
2 48268  97.8943 271.9729 0001351  94.3874 265.7493 14.81670062282016
PLEIADES NEO 4          
1 49070U 21073E   26197.59599528  .00000586  00000+0  81115-4 0  9998
2 49070  97.8942 271.9356 0001348  92.1221 268.0146 14.81674796265729
LANDSAT 9               
1 49260U 21088A   26197.44991897  .00000157  00000+0  44905-4 0  9994
2 49260  98.2270 267.2712 0001123  89.1381 270.9946 14.57095995255266
CSG-2                   
1 51444U 22008A   26197.58720376 -.00000173  00000+0 -15143-4 0  9993
2 51444  97.8886  20.7587 0001497  86.7951 273.3433 14.82148994240946
GAOFEN-12 03            
1 52912U 22069A   26197.66457450  .00000622  00000+0  88721-4 0  9999
2 52912  97.8244  84.7870 0002420  71.4372 288.7103 14.80078227218976
SWOT                    
1 54754U 22173A   26197.57029635 -.00000019  00000+0 -11323-4 0  9997
2 54754  77.6111 355.6415 0000237  72.7747 287.3431 14.00172451183268
GAOFEN-12 04            
1 57654U 23123A   26197.61695186  .00000441  00000+0  65417-4 0  9990
2 57654  97.9100 115.1946 0003445  47.5039 312.6463 14.79776708156986
PARS 1                  
1 59065U 24039Q   26197.63445045  .00006303  00000+0  12959-3 0  9999
2 59065  97.4842 179.4978 0009602  22.2905 337.8759 15.46308464133193
RESURS-P 4              
1 59371U 24061A   26197.65148839  .00001591  00000+0  53454-4 0  9997
2 59371  97.2760 145.0419 0003234  87.2742 272.8871 15.32284961128270
LEGION 1                
1 59625U 24081A   26197.58441693  .00001846  00000+0  97237-4 0  9997
2 59625  97.5011 275.1297 0007731 263.8823  96.1529 15.16849035121991
LEGION 2                
1 59626U 24081B   26197.54885400  .00001864  00000+0  98134-4 0  9999
2 59626  97.5012 275.1912 0010307 228.3235 131.7117 15.16827887121993
ALOS-4 (DAICHI-4)       
1 60182U 24123A   26197.57881850  .00000778  00000+0  11111-3 0  9995
2 60182  97.9221 294.3329 0001534  96.1078 264.0309 14.79472233110227
LEGION 3                
1 60452U 24146A   26197.58882500  .00001303  00000+0  80998-4 0  9999
2 60452  45.0017 232.9186 0008080 341.6257  18.4328 15.15659955106487
LEGION 4                
1 60453U 24146B   26197.58854459  .00001602  00000+0  96356-4 0  9999
2 60453  45.0029 324.7876 0009005 122.4333 237.7418 15.15686972105333
SENTINEL-2C             
1 60989U 24157A   26197.61311993  .00000050  00000+0  35722-4 0  9996
2 60989  98.5684 271.9774 0000993 103.7400 256.3894 14.30815932 97196
IONOSFERA-M 1           
1 61735U 24199A   26197.58997544  .00000020  00000+0  28667-4 0  9997
2 61735  98.7132  70.4465 0002139  70.9975 289.1435 14.22759314131883
